UNKNOWN                 
1 81052U          26005.15736917  .00011772  00000+0  30603-2 0  9999
2 81052  65.7732 330.2450 0565117 296.5046  57.9129 13.83331988603551
UNKNOWN                 
1 81069U          26002.94349318  .00005478  00000+0  72125-2 0  9997
2 81069 100.3846 270.3387 0067853 351.9169   8.0871 13.60681773518810
UNKNOWN                 
1 81111U          26007.39202784  .00018580  00000+0  40091-2 0  9999
2 81111  62.8955 355.1902 3855192 358.2092   0.7670  7.56207663273886
UNKNOWN                 
1 81123U          26006.52308960  .00001311  00000+0  12737-2 0  9999
2 81123  99.9706  94.5272 0001693   5.3365 354.7804 13.81655968609702
UNKNOWN                 
1 81134U          26006.23994523  .00000178  00000+0  62596-3 0  9994
2 81134  90.2474   4.5749 0025012 328.5608  31.4014 12.92988560465778
UNKNOWN                 
1 81161U          26006.78293602  .00000840  00000+0  91090-3 0  9991
2 81161 100.4167 216.1103 0062836 220.5347 139.1110 13.75676776559572
UNKNOWN                 
1 81219U          26006.68670936  .00000551  00000+0  49965-3 0  9996
2 81219  82.9269 347.4007 0021817 141.8029 218.4682 13.81809935610968
UNKNOWN                 
1 81228U          26006.24959912  .00006414  00000+0  19546-2 0  9997
2 81228  70.5185 221.7214 0063698 324.5484  35.1423 14.41174073629625
UNKNOWN                 
1 81254U          26004.94379902  .00003931  00000+0  25699-2 0  9993
2 81254 100.3873  75.2101 0070836  10.4918 349.7702 14.01700721616140
UNKNOWN                 
1 81279U          26006.43790901  .00001450  00000+0  56725-3 0  9991
2 81279  98.1262  68.8805 0206151 312.8688  45.5334 14.20007931466101
UNKNOWN                 
1 81301U          26003.92805043  .00000291  00000+0  35992-3 0  9997
2 81301  66.7576 242.8749 0092882 218.4000 160.3091 13.76720415609418
UNKNOWN                 
1 81311U          26006.91697852  .00000670  00000+0  14512-3 0  9993
2 81311  98.7289  70.3754 0132123  48.0477 127.8998 14.56582273643254
