CCSDS_OMM_VERS = 2.0
CREATION_DATE  = 
ORIGINATOR     = 

OBJECT_NAME    = UNKNOWN
OBJECT_ID      = 
CENTER_NAME    = EARTH
REF_FRAME      = TEME
TIME_SYSTEM    = UTC
MEAN_ELEMENT_THEORY = SGP/SGP4

EPOCH          = 2026-01-05T03:46:36.696288
MEAN_MOTION    = 13.83331988
ECCENTRICITY   = .0565117
INCLINATION    = 65.7732
RA_OF_ASC_NODE = 330.2450
ARG_OF_PERICENTER = 296.5046
MEAN_ANOMALY   = 57.9129

EPHEMERIS_TYPE = 0
CLASSIFICATION_TYPE = U
NORAD_CAT_ID   = 81052
ELEMENT_SET_NO = 999
REV_AT_EPOCH   = 60355
BSTAR          = .30603E-2
MEAN_MOTION_DOT = .11772E-3
MEAN_MOTION_DDOT = 0

CCSDS_OMM_VERS = 2.0
CREATION_DATE  = 
ORIGINATOR     = 

OBJECT_NAME    = UNKNOWN
OBJECT_ID      = 
CENTER_NAME    = EARTH
REF_FRAME      = TEME
TIME_SYSTEM    = UTC
MEAN_ELEMENT_THEORY = SGP/SGP4

EPOCH          = 2026-01-02T22:38:37.810752
MEAN_MOTION    = 13.60681773
ECCENTRICITY   = .0067853
INCLINATION    = 100.3846
RA_OF_ASC_NODE = 270.3387
ARG_OF_PERICENTER = 351.9169
MEAN_ANOMALY   = 8.0871

EPHEMERIS_TYPE = 0
CLASSIFICATION_TYPE = U
NORAD_CAT_ID   = 81069
ELEMENT_SET_NO = 999
REV_AT_EPOCH   = 51881
BSTAR          = .72125E-2
MEAN_MOTION_DOT = .5478E-4
MEAN_MOTION_DDOT = 0

CCSDS_OMM_VERS = 2.0
CREATION_DATE  = 
ORIGINATOR     = 

OBJECT_NAME    = UNKNOWN
OBJECT_ID      = 
CENTER_NAME    = EARTH
REF_FRAME      = TEME
TIME_SYSTEM    = UTC
MEAN_ELEMENT_THEORY = SGP/SGP4

EPOCH          = 2026-01-07T09:24:31.205376
MEAN_MOTION    = 7.56207663
ECCENTRICITY   = .3855192
INCLINATION    = 62.8955
RA_OF_ASC_NODE = 355.1902
ARG_OF_PERICENTER = 358.2092
MEAN_ANOMALY   = 0.7670

EPHEMERIS_TYPE = 0
CLASSIFICATION_TYPE = U
NORAD_CAT_ID   = 81111
ELEMENT_SET_NO = 999
REV_AT_EPOCH   = 27388
BSTAR          = .40091E-2
MEAN_MOTION_DOT = .1858E-3
MEAN_MOTION_DDOT = 0

CCSDS_OMM_VERS = 2.0
CREATION_DATE  = 
ORIGINATOR     = 

OBJECT_NAME    = UNKNOWN
OBJECT_ID      = 
CENTER_NAME    = EARTH
REF_FRAME      = TEME
TIME_SYSTEM    = UTC
MEAN_ELEMENT_THEORY = SGP/SGP4

EPOCH          = 2026-01-06T12:33:14.941440
MEAN_MOTION    = 13.81655968
ECCENTRICITY   = .0001693
INCLINATION    = 99.9706
RA_OF_ASC_NODE = 94.5272
ARG_OF_PERICENTER = 5.3365
MEAN_ANOMALY   = 354.7804

EPHEMERIS_TYPE = 0
CLASSIFICATION_TYPE = U
NORAD_CAT_ID   = 81123
ELEMENT_SET_NO = 999
REV_AT_EPOCH   = 60970
BSTAR          = .12737E-2
MEAN_MOTION_DOT = .1311E-4
MEAN_MOTION_DDOT = 0

CCSDS_OMM_VERS = 2.0
CREATION_DATE  = 
ORIGINATOR     = 

OBJECT_NAME    = UNKNOWN
OBJECT_ID      = 
CENTER_NAME    = EARTH
REF_FRAME      = TEME
TIME_SYSTEM    = UTC
MEAN_ELEMENT_THEORY = SGP/SGP4

EPOCH          = 2026-01-06T05:45:31.267872
MEAN_MOTION    = 12.92988560
ECCENTRICITY   = .0025012
INCLINATION    = 90.2474
RA_OF_ASC_NODE = 4.5749
ARG_OF_PERICENTER = 328.5608
MEAN_ANOMALY   = 31.4014

EPHEMERIS_TYPE = 0
CLASSIFICATION_TYPE = U
NORAD_CAT_ID   = 81134
ELEMENT_SET_NO = 999
REV_AT_EPOCH   = 46577
BSTAR          = .62596E-3
MEAN_MOTION_DOT = .178E-5
MEAN_MOTION_DDOT = 0

CCSDS_OMM_VERS = 2.0
CREATION_DATE  = 
ORIGINATOR     = 

OBJECT_NAME    = UNKNOWN
OBJECT_ID      = 
CENTER_NAME    = EARTH
REF_FRAME      = TEME
TIME_SYSTEM    = UTC
MEAN_ELEMENT_THEORY = SGP/SGP4

EPOCH          = 2026-01-06T18:47:25.672128
MEAN_MOTION    = 13.75676776
ECCENTRICITY   = .0062836
INCLINATION    = 100.4167
RA_OF_ASC_NODE = 216.1103
ARG_OF_PERICENTER = 220.5347
MEAN_ANOMALY   = 139.1110

EPHEMERIS_TYPE = 0
CLASSIFICATION_TYPE = U
NORAD_CAT_ID   = 81161
ELEMENT_SET_NO = 999
REV_AT_EPOCH   = 55957
BSTAR          = .9109E-3
MEAN_MOTION_DOT = .84E-5
MEAN_MOTION_DDOT = 0

CCSDS_OMM_VERS = 2.0
CREATION_DATE  = 
ORIGINATOR     = 

OBJECT_NAME    = UNKNOWN
OBJECT_ID      = 
CENTER_NAME    = EARTH
REF_FRAME      = TEME
TIME_SYSTEM    = UTC
MEAN_ELEMENT_THEORY = SGP/SGP4

EPOCH          = 2026-01-06T16:28:51.688704
MEAN_MOTION    = 13.81809935
ECCENTRICITY   = .0021817
INCLINATION    = 82.9269
RA_OF_ASC_NODE = 347.4007
ARG_OF_PERICENTER = 141.8029
MEAN_ANOMALY   = 218.4682

EPHEMERIS_TYPE = 0
CLASSIFICATION_TYPE = U
NORAD_CAT_ID   = 81219
ELEMENT_SET_NO = 999
REV_AT_EPOCH   = 61096
BSTAR          = .49965E-3
MEAN_MOTION_DOT = .551E-5
MEAN_MOTION_DDOT = 0

CCSDS_OMM_VERS = 2.0
CREATION_DATE  = 
ORIGINATOR     = 

OBJECT_NAME    = UNKNOWN
OBJECT_ID      = 
CENTER_NAME    = EARTH
REF_FRAME      = TEME
TIME_SYSTEM    = UTC
MEAN_ELEMENT_THEORY = SGP/SGP4

EPOCH          = 2026-01-06T05:59:25.363968
MEAN_MOTION    = 14.41174073
ECCENTRICITY   = .0063698
INCLINATION    = 70.5185
RA_OF_ASC_NODE = 221.7214
ARG_OF_PERICENTER = 324.5484
MEAN_ANOMALY   = 35.1423

EPHEMERIS_TYPE = 0
CLASSIFICATION_TYPE = U
NORAD_CAT_ID   = 81228
ELEMENT_SET_NO = 999
REV_AT_EPOCH   = 62962
BSTAR          = .19546E-2
MEAN_MOTION_DOT = .6414E-4
MEAN_MOTION_DDOT = 0

CCSDS_OMM_VERS = 2.0
CREATION_DATE  = 
ORIGINATOR     = 

OBJECT_NAME    = UNKNOWN
OBJECT_ID      = 
CENTER_NAME    = EARTH
REF_FRAME      = TEME
TIME_SYSTEM    = UTC
MEAN_ELEMENT_THEORY = SGP/SGP4

EPOCH          = 2026-01-04T22:39:04.235328
MEAN_MOTION    = 14.01700721
ECCENTRICITY   = .0070836
INCLINATION    = 100.3873
RA_OF_ASC_NODE = 75.2101
ARG_OF_PERICENTER = 10.4918
MEAN_ANOMALY   = 349.7702

EPHEMERIS_TYPE = 0
CLASSIFICATION_TYPE = U
NORAD_CAT_ID   = 81254
ELEMENT_SET_NO = 999
REV_AT_EPOCH   = 61614
BSTAR          = .25699E-2
MEAN_MOTION_DOT = .3931E-4
MEAN_MOTION_DDOT = 0

CCSDS_OMM_VERS = 2.0
CREATION_DATE  = 
ORIGINATOR     = 

OBJECT_NAME    = UNKNOWN
OBJECT_ID      = 
CENTER_NAME    = EARTH
REF_FRAME      = TEME
TIME_SYSTEM    = UTC
MEAN_ELEMENT_THEORY = SGP/SGP4

EPOCH          = 2026-01-06T10:30:35.338464
MEAN_MOTION    = 14.20007931
ECCENTRICITY   = .0206151
INCLINATION    = 98.1262
RA_OF_ASC_NODE = 68.8805
ARG_OF_PERICENTER = 312.8688
MEAN_ANOMALY   = 45.5334

EPHEMERIS_TYPE = 0
CLASSIFICATION_TYPE = U
NORAD_CAT_ID   = 81279
ELEMENT_SET_NO = 999
REV_AT_EPOCH   = 46610
BSTAR          = .56725E-3
MEAN_MOTION_DOT = .145E-4
MEAN_MOTION_DDOT = 0

CCSDS_OMM_VERS = 2.0
CREATION_DATE  = 
ORIGINATOR     = 

OBJECT_NAME    = UNKNOWN
OBJECT_ID      = 
CENTER_NAME    = EARTH
REF_FRAME      = TEME
TIME_SYSTEM    = UTC
MEAN_ELEMENT_THEORY = SGP/SGP4

EPOCH          = 2026-01-03T22:16:23.557152
MEAN_MOTION    = 13.76720415
ECCENTRICITY   = .0092882
INCLINATION    = 66.7576
RA_OF_ASC_NODE = 242.8749
ARG_OF_PERICENTER = 218.4000
MEAN_ANOMALY   = 160.3091

EPHEMERIS_TYPE = 0
CLASSIFICATION_TYPE = U
NORAD_CAT_ID   = 81301
ELEMENT_SET_NO = 999
REV_AT_EPOCH   = 60941
BSTAR          = .35992E-3
MEAN_MOTION_DOT = .291E-5
MEAN_MOTION_DDOT = 0

CCSDS_OMM_VERS = 2.0
CREATION_DATE  = 
ORIGINATOR     = 

OBJECT_NAME    = UNKNOWN
OBJECT_ID      = 
CENTER_NAME    = EARTH
REF_FRAME      = TEME
TIME_SYSTEM    = UTC
MEAN_ELEMENT_THEORY = SGP/SGP4

EPOCH          = 2026-01-06T22:00:26.944128
MEAN_MOTION    = 14.56582273
ECCENTRICITY   = .0132123
INCLINATION    = 98.7289
RA_OF_ASC_NODE = 70.3754
ARG_OF_PERICENTER = 48.0477
MEAN_ANOMALY   = 127.8998

EPHEMERIS_TYPE = 0
CLASSIFICATION_TYPE = U
NORAD_CAT_ID   = 81311
ELEMENT_SET_NO = 999
REV_AT_EPOCH   = 64325
BSTAR          = .14512E-3
MEAN_MOTION_DOT = .67E-5
MEAN_MOTION_DDOT = 0

